OBJECT_NAME,OBJECT_ID,EPOCH,MEAN_MOTION,ECCENTRICITY,INCLINATION,RA_OF_ASC_NODE,ARG_OF_PERICENTER,MEAN_ANOMALY,EPHEMERIS_TYPE,CLASSIFICATION_TYPE,NORAD_CAT_ID,ELEMENT_SET_NO,REV_AT_EPOCH,BSTAR,MEAN_MOTION_DOT,MEAN_MOTION_DDOT
ONEWEB-0087,2020-020AD,2026-06-17T11:44:13.411968,13.11419580,.00016672,87.8904,20.9826,76.9437,283.1877,0,U,45451,999,30262,.67779443E-3,.253E-5,0
ONEWEB-0082,2020-020AE,2026-06-17T11:39:20.971296,13.11420033,.00018418,87.8896,20.9998,70.2889,289.8437,0,U,45452,999,30271,.36386025E-3,.142E-5,0
ONEWEB-0050,2020-020AF,2026-06-17T03:25:10.096608,14.90381093,.00031706,88.9297,233.2169,26.1821,333.9568,0,U,45453,999,34037,.1886892E-3,.1857E-4,0
ONEWEB-0034,2020-020AG,2026-06-17T14:23:19.066272,13.11413613,.0001828,87.8892,20.9866,85.1138,275.0199,0,U,45454,999,30264,-.15268422E-3,-.41E-6,0
ONEWEB-0060,2020-020AH,2026-06-17T13:18:24.267456,13.11417871,.00012578,87.8886,20.9935,52.2849,307.8393,0,U,45455,999,30259,-.13611611E-2,-.47E-5,0
ONEWEB-0086,2020-020AJ,2026-06-17T14:37:33.786048,13.11414602,.00010262,87.8893,20.9778,85.1071,275.0174,0,U,45456,999,30266,-.12789336E-2,-.441E-5,0
ONEWEB-0088,2020-020AK,2026-06-17T12:16:09.789024,13.11416729,.00021666,87.8902,20.9704,79.4431,280.6941,0,U,45457,999,30258,.10700438E-2,.392E-5,0
ONEWEB-0102,2020-100A,2026-06-17T12:21:48.473568,13.12440815,.00016095,87.8939,350.6099,98.2237,261.9074,0,U,47258,999,26477,-.23355603E-3,-.71E-6,0
ONEWEB-0109,2020-100B,2026-06-17T12:34:00.148512,13.12440760,.00018268,87.8948,350.5914,96.0843,264.0494,0,U,47259,999,26460,-.93230798E-3,-.323E-5,0
ONEWEB-0110,2020-100C,2026-06-17T13:13:01.911648,13.12445344,.00015665,87.8949,350.5707,90.1700,269.9608,0,U,47260,999,26477,-.11942119E-3,-.3E-6,0
ONEWEB-0111,2020-100D,2026-06-17T12:07:10.515648,13.12440759,.00017563,87.8949,350.5982,88.3867,271.7463,0,U,47261,999,26460,.72378792E-3,.273E-5,0
ONEWEB-0114,2020-100E,2026-06-17T12:51:05.367456,13.12433294,.00021513,87.8953,350.5903,95.4520,264.6854,0,U,47262,999,26456,-.41736643E-2,-.1488E-4,0
ONEWEB-0117,2020-100F,2026-06-17T12:38:53.009952,13.12442818,.00017769,87.8946,350.5820,91.1062,269.0270,0,U,47263,999,26457,-.10328654E-2,-.359E-5,0
ONEWEB-0118,2020-100G,2026-06-17T11:37:54.221376,13.12443530,.00021441,87.8946,350.5935,91.6289,268.5086,0,U,47264,999,26476,.67987031E-3,.257E-5,0
ONEWEB-0119,2020-100H,2026-06-17T12:14:29.909760,13.12442515,.00018119,87.8938,350.6050,91.2257,268.9079,0,U,47265,999,26474,.28231352E-3,.114E-5,0
ONEWEB-0120,2020-100J,2026-06-17T12:48:50.372640,13.12444222,.00018794,87.8938,350.6014,96.9461,263.1881,0,U,47266,999,26477,-.1025396E-2,-.356E-5,0
ONEWEB-0121,2020-100K,2026-06-17T12:31:33.757536,13.12442877,.00016985,87.8948,350.5898,81.3223,278.8098,0,U,47267,999,26468,-.60169433E-3,-.204E-5,0
ONEWEB-0122,2020-100L,2026-06-17T12:23:02.616000,13.12441865,.00017202,87.8950,350.5955,95.8647,264.2678,0,U,47268,999,26459,-.19722299E-3,-.58E-6,0
ONEWEB-0123,2020-100M,2026-06-17T12:16:55.848864,13.12443355,.00019176,87.8937,350.6037,90.5942,269.5406,0,U,47269,999,26473,.1651679E-3,.72E-6,0
ONEWEB-0124,2020-100N,2026-06-17T12:02:17.814912,13.12443705,.00017767,87.8937,350.6088,87.6221,272.5111,0,U,47270,999,26461,.96062523E-3,.358E-5,0
ONEWEB-0125,2020-100P,2026-06-17T13:20:20.862528,13.12445467,.0001959,87.8948,350.5815,82.2658,277.8693,0,U,47271,999,26468,.16110205E-3,.71E-6,0
ONEWEB-0126,2020-100Q,2026-06-17T12:00:04.416768,13.12442602,.00018836,87.8942,350.6081,94.8612,265.2731,0,U,47272,999,26474,.10397481E-2,.387E-5,0
ONEWEB-0127,2020-100R,2026-06-17T13:00:49.856544,13.12443469,.00019326,87.8938,350.5986,98.5961,261.5386,0,U,47273,999,26477,-.13328496E-2,-.467E-5,0
ONEWEB-0128,2020-100S,2026-06-17T11:42:46.648224,13.12444070,.0001502,87.8936,350.6232,89.0857,271.0443,0,U,47274,999,26478,.97935085E-3,.365E-5,0
ONEWEB-0129,2020-100T,2026-06-17T13:03:16.831584,13.12444306,.00024418,87.8948,350.5860,117.0623,243.0755,0,U,47275,999,26472,-.76051635E-3,-.261E-5,0
ONEWEB-0130,2020-100U,2026-06-17T11:52:32.726208,13.12443850,.0001759,87.8948,350.5910,94.0192,266.1138,0,U,47276,999,26468,.1163959E-2,.431E-5,0
ONEWEB-0131,2020-100V,2026-06-17T11:47:40.720992,13.12439935,.00017721,87.8937,350.6099,91.3917,268.7414,0,U,47277,999,26472,.41762093E-2,.1515E-4,0
ONEWEB-0132,2020-100W,2026-06-17T12:29:07.611072,13.12443178,.00017373,87.8939,350.6058,90.7136,269.4192,0,U,47278,999,26462,-.58969264E-3,-.199E-5,0
ONEWEB-0133,2020-100X,2026-06-17T12:53:18.640320,13.12442126,.00016863,87.8953,350.5787,89.9029,270.2293,0,U,47279,999,26478,-.98277693E-3,-.341E-5,0
ONEWEB-0134,2020-100Y,2026-06-17T12:09:37.081152,13.12440855,.00016594,87.8952,350.5817,98.9250,261.2067,0,U,47280,999,26475,.72004559E-3,.272E-5,0
ONEWEB-0135,2020-100Z,2026-06-17T13:17:54.568320,13.12445869,.00015448,87.8938,350.5952,96.8448,263.2856,0,U,47281,999,26478,.2719083E-3,.111E-5,0
ONEWEB-0136,2020-100AA,2026-06-17T11:54:58.387104,13.12443981,.00016322,87.8946,350.5879,100.4357,259.6955,0,U,47282,999,26470,.11956798E-2,.443E-5,0
ONEWEB-0137,2020-100AB,2026-06-17T12:43:45.251040,13.12441706,.00019765,87.8952,350.5909,89.0541,271.0814,0,U,47283,999,26461,-.9605879E-3,-.333E-5,0
ONEWEB-0138,2020-100AC,2026-06-17T12:12:03.427200,13.12442665,.00017293,87.8948,350.6011,97.9581,262.1744,0,U,47284,999,26469,.42208768E-3,.165E-5,0
ONEWEB-0139,2020-100AD,2026-06-17T13:10:47.322048,13.12444694,.00018339,87.8946,350.5794,92.6067,267.5271,0,U,47285,999,26477,-.44459219E-3,-.147E-5,0
ONEWEB-0140,2020-100AE,2026-06-17T12:04:44.118624,13.12443239,.00016547,87.8949,350.5793,88.2042,271.9276,0,U,47286,999,26473,.83603454E-3,.313E-5,0
ONEWEB-0141,2020-100AF,2026-06-17T13:10:23.464416,13.12444455,.00021519,87.8947,350.5753,89.4912,270.6464,0,U,47287,999,26472,-.77852654E-3,-.267E-5,0
ONEWEB-0142,2020-100AG,2026-06-17T12:53:44.572416,13.12443662,.00021754,87.8943,350.5991,97.9611,262.1764,0,U,47288,999,26471,-.98961095E-3,-.343E-5,0
ONEWEB-0143,2020-100AH,2026-06-17T13:08:09.070080,13.12445169,.00018369,87.8948,350.5959,90.4742,269.6597,0,U,47289,999,26469,-.61317405E-3,-.208E-5,0
ONEWEB-0144,2020-100AJ,2026-06-17T14:16:28.904736,13.12443171,.00018798,87.8951,350.5604,103.0502,257.0836,0,U,47290,999,26462,-.20441086E-3,-.61E-6,0
ONEWEB-0145,2020-100AK,2026-06-17T11:45:13.083264,13.12444723,.00018542,87.8940,350.6091,93.4817,266.6523,0,U,47291,999,26480,.99563461E-3,.371E-5,0
ONEWEB-0146,2020-100AL,2026-06-17T11:40:20.572608,13.12444759,.00016774,87.8947,350.6016,80.4630,279.6688,0,U,47292,999,26471,.87992832E-3,.329E-5,0
ONEWEB-0147,2020-100AM,2026-06-17T12:41:18.911904,13.12441440,.00016766,87.8950,350.5745,92.4644,267.6676,0,U,47293,999,26461,-.98751294E-3,-.343E-5,0
ONEWEB-0115,2021-025A,2026-06-17T09:42:07.723584,13.13469995,.00017816,87.8957,320.1799,95.0066,265.1266,0,U,48042,999,25362,.79064506E-3,.301E-5,0
ONEWEB-0152,2021-025B,2026-06-17T10:01:37.386048,13.13470091,.0001725,87.8962,320.1739,93.5391,266.5935,0,U,48043,999,25358,.80335414E-3,.306E-5,0
ONEWEB-0153,2021-025C,2026-06-17T09:29:55.614048,13.13471126,.00018911,87.8953,320.1814,98.4459,261.6884,0,U,48044,999,25357,.3846861E-3,.153E-5,0
ONEWEB-0154,2021-025D,2026-06-17T03:55:57.796896,13.13472446,.0001802,87.8956,320.2251,98.1768,261.9565,0,U,48045,999,25350,.10571387E-2,.399E-5,0
ONEWEB-0116,2021-025E,2026-06-17T10:21:06.674400,13.13468050,.00017198,87.8962,320.1685,94.1637,265.9689,0,U,48046,999,25368,-.66230104E-4,-.11E-6,0
ONEWEB-0150,2021-025F,2026-06-17T11:36:41.707584,13.13470179,.00020195,87.8962,320.1555,94.1484,265.9876,0,U,48047,999,25358,.94335293E-3,.357E-5,0
ONEWEB-0107,2021-025G,2026-06-17T09:49:26.252832,13.13470116,.00020082,87.8963,320.1663,102.3112,257.8242,0,U,48048,999,25355,.8458883E-3,.322E-5,0
ONEWEB-0101,2021-025H,2026-06-17T14:24:52.720416,13.13470477,.00018068,87.8952,320.1436,101.9885,258.1447,0,U,48049,999,25355,-.90665024E-3,-.318E-5,0
ONEWEB-0113,2021-025J,2026-06-17T11:20:26.556576,13.13894251,.00018497,87.8957,320.0796,93.5266,266.6074,0,U,48050,999,25364,.25242976E-3,.106E-5,0
ONEWEB-0112,2021-025K,2026-06-17T09:56:44.898720,13.13470254,.00018012,87.8963,320.1633,104.8299,255.3030,0,U,48051,999,25362,.89276463E-3,.339E-5,0
ONEWEB-0156,2021-025L,2026-06-17T10:08:55.821984,13.13469833,.0001948,87.8962,320.1715,98.0154,262.1196,0,U,48052,999,25360,.61257201E-3,.236E-5,0
ONEWEB-0161,2021-025M,2026-06-17T11:22:03.526752,13.13471371,.00020019,87.8961,320.1628,99.4572,260.6783,0,U,48053,999,25354,.58254119E-3,.225E-5,0
ONEWEB-0158,2021-025N,2026-06-17T10:23:33.556128,13.13470886,.00015824,87.8963,320.1679,96.0408,264.0901,0,U,48054,999,25366,-.48480187E-4,-.5E-7,0
ONEWEB-0157,2021-025P,2026-06-17T11:00:07.813728,13.13470380,.00021012,87.8958,320.1686,106.1196,254.0164,0,U,48055,999,25360,-.40128711E-3,-.134E-5,0
ONEWEB-0162,2021-025Q,2026-06-17T12:15:29.632896,13.13469311,.00019605,87.8960,320.1589,94.1493,265.9860,0,U,48056,999,25358,-.31553381E-3,-.102E-5,0
ONEWEB-0155,2021-025R,2026-06-17T10:35:44.275488,13.13470044,.00018264,87.8958,320.1687,102.4443,257.6891,0,U,48057,999,25371,-.57182097E-3,-.196E-5,0
ONEWEB-0149,2021-025S,2026-06-17T11:07:26.362848,13.13470927,.00020324,87.8961,320.1681,93.5231,266.6131,0,U,48058,999,25352,-.24972253E-3,-.78E-6,0
ONEWEB-0148,2021-025T,2026-06-17T10:13:48.403488,13.13469678,.00024079,87.8955,320.1824,92.7007,267.4397,0,U,48059,999,25364,.45186021E-3,.178E-5,0
ONEWEB-0160,2021-025U,2026-06-17T10:38:10.155840,13.13471245,.00013956,87.8955,320.1750,75.4995,284.6289,0,U,48060,999,25359,-.64182745E-3,-.222E-5,0
ONEWEB-0163,2021-025V,2026-06-17T10:16:13.819872,13.13470714,.0001991,87.8961,320.1726,104.2563,255.8787,0,U,48061,999,25371,.354234E-3,.142E-5,0
ONEWEB-0159,2021-025W,2026-06-17T10:04:02.996832,13.13470649,.00019335,87.8964,320.1679,104.0842,256.0502,0,U,48062,999,25363,.77015629E-3,.294E-5,0
ONEWEB-0164,2021-025X,2026-06-17T11:26:55.981248,13.13470868,.00017747,87.8964,320.1628,95.8289,264.3043,0,U,48063,999,25362,.62914339E-3,.243E-5,0
